{
  "type": "FeatureCollection",
  "features": [
    {
      "type": "Feature",
      "properties": {
        "norad_id": 66940,
        "name": "STARLINK-36121",
        "group": "last-30-days",
        "lat": -33.97582786223286,
        "lon": -23.413335930195593,
        "alt_km": 351.38033462914973,
        "timestamp": "2025-12-21T09:37:21.374143+00:00",
        "meta_object_name": "STARLINK-36121",
        "meta_object_id": "2025-286R",
        "meta_epoch": "2025-12-21T04:00:01.998720",
        "meta_mean_motion": 15.74245317,
        "meta_eccentricity": 8.81e-05,
        "meta_inclination": 53.1574,
        "meta_ra_of_asc_node": 8.1001,
        "meta_arg_of_pericenter": 81.9281,
        "meta_mean_anomaly": 345.5327,
        "meta_ephemeris_type": 0,
        "meta_classification_type": "U",
        "meta_norad_cat_id": 66940,
        "meta_element_set_no": 999,
        "meta_rev_at_epoch": 334,
        "meta_bstar": -0.00086811,
        "meta_mean_motion_dot": -0.00126184,
        "meta_mean_motion_ddot": 0,
        "tle_line1": "1 66940U 25286R   25355.16668980 -.00126184  00000+0 -86811-3 0  9992",
        "tle_line2": "2 66940  53.1574   8.1001 0000881  81.9281 345.5327 15.74245317  3346"
      },
      "geometry": {
        "type": "Point",
        "coordinates": [
          -23.413335930195593,
          -33.97582786223286
        ]
      }
    },
    {
      "type": "Feature",
      "properties": {
        "norad_id": 66941,
        "name": "STARLINK-36088",
        "group": "last-30-days",
        "lat": -36.578057617374085,
        "lon": -26.8621385744229,
        "alt_km": 351.6396608156365,
        "timestamp": "2025-12-21T09:37:21.374153+00:00",
        "meta_object_name": "STARLINK-36088",
        "meta_object_id": "2025-286S",
        "meta_epoch": "2025-12-21T04:00:01.998720",
        "meta_mean_motion": 15.74266858,
        "meta_eccentricity": 0.000106,
        "meta_inclination": 53.1577,
        "meta_ra_of_asc_node": 8.1081,
        "meta_arg_of_pericenter": 81.0035,
        "meta_mean_anomaly": 342.6074,
        "meta_ephemeris_type": 0,
        "meta_classification_type": "U",
        "meta_norad_cat_id": 66941,
        "meta_element_set_no": 999,
        "meta_rev_at_epoch": 334,
        "meta_bstar": -0.0012213,
        "meta_mean_motion_dot": -0.00176391,
        "meta_mean_motion_ddot": 0,
        "tle_line1": "1 66941U 25286S   25355.16668980 -.00176391  00000+0 -12213-2 0  9992",
        "tle_line2": "2 66941  53.1577   8.1081 0001060  81.0035 342.6074 15.74266858  3346"
      },
      "geometry": {
        "type": "Point",
        "coordinates": [
          -26.8621385744229,
          -36.578057617374085
        ]
      }
    },
    {
      "type": "Feature",
      "properties": {
        "norad_id": 66942,
        "name": "STARLINK-36100",
        "group": "last-30-days",
        "lat": -32.66836634659735,
        "lon": -21.80334455790274,
        "alt_km": 351.6409518927012,
        "timestamp": "2025-12-21T09:37:21.374163+00:00",
        "meta_object_name": "STARLINK-36100",
        "meta_object_id": "2025-286T",
        "meta_epoch": "2025-12-21T04:00:01.998720",
        "meta_mean_motion": 15.74170997,
        "meta_eccentricity": 0.000117,
        "meta_inclination": 53.1573,
        "meta_ra_of_asc_node": 8.096,
        "meta_arg_of_pericenter": 91.4176,
        "meta_mean_anomaly": 337.9764,
        "meta_ephemeris_type": 0,
        "meta_classification_type": "U",
        "meta_norad_cat_id": 66942,
        "meta_element_set_no": 999,
        "meta_rev_at_epoch": 327,
        "meta_bstar": -0.00047038,
        "meta_mean_motion_dot": -0.00068904,
        "meta_mean_motion_ddot": 0,
        "tle_line1": "1 66942U 25286T   25355.16668980 -.00068904  00000+0 -47038-3 0  9997",
        "tle_line2": "2 66942  53.1573   8.0960 0001170  91.4176 337.9764 15.74170997  3274"
      },
      "geometry": {
        "type": "Point",
        "coordinates": [
          -21.80334455790274,
          -32.66836634659735
        ]
      }
    },
    {
      "type": "Feature",
      "properties": {
        "norad_id": 66943,
        "name": "STARLINK-36109",
        "group": "last-30-days",
        "lat": -31.29143359030215,
        "lon": -20.183159111951618,
        "alt_km": 351.470397916014,
        "timestamp": "2025-12-21T09:37:21.374173+00:00",
        "meta_object_name": "STARLINK-36109",
        "meta_object_id": "2025-286U",
        "meta_epoch": "2025-12-21T04:00:01.998720",
        "meta_mean_motion": 15.74207583,
        "meta_eccentricity": 0.0001162,
        "meta_inclination": 53.1574,
        "meta_ra_of_asc_node": 8.0919,
        "meta_arg_of_pericenter": 96.5059,
        "meta_mean_anomaly": 334.8053,
        "meta_ephemeris_type": 0,
        "meta_classification_type": "U",
        "meta_norad_cat_id": 66943,
        "meta_element_set_no": 999,
        "meta_rev_at_epoch": 327,
        "meta_bstar": -0.00041992,
        "meta_mean_motion_dot": -0.00061728,
        "meta_mean_motion_ddot": 0,
        "tle_line1": "1 66943U 25286U   25355.16668980 -.00061728  00000+0 -41992-3 0  9998",
        "tle_line2": "2 66943  53.1574   8.0919 0001162  96.5059 334.8053 15.74207583  3276"
      },
      "geometry": {
        "type": "Point",
        "coordinates": [
          -20.183159111951618,
          -31.29143359030215
        ]
      }
    },
    {
      "type": "Feature",
      "properties": {
        "norad_id": 66944,
        "name": "STARLINK-36112",
        "group": "last-30-days",
        "lat": -29.91766958437498,
        "lon": -18.635160113796317,
        "alt_km": 351.28691938465363,
        "timestamp": "2025-12-21T09:37:21.374183+00:00",
        "meta_object_name": "STARLINK-36112",
        "meta_object_id": "2025-286V",
        "meta_epoch": "2025-12-21T04:00:01.998720",
        "meta_mean_motion": 15.74195134,
        "meta_eccentricity": 7.84e-05,
        "meta_inclination": 53.1575,
        "meta_ra_of_asc_node": 8.0881,
        "meta_arg_of_pericenter": 113.2399,
        "meta_mean_anomaly": 319.9921,
        "meta_ephemeris_type": 0,
        "meta_classification_type": "U",
        "meta_norad_cat_id": 66944,
        "meta_element_set_no": 999,
        "meta_rev_at_epoch": 334,
        "meta_bstar": -0.00031491,
        "meta_mean_motion_dot": -0.00046504,
        "meta_mean_motion_ddot": 0,
        "tle_line1": "1 66944U 25286V   25355.16668980 -.00046504  00000+0 -31491-3 0  9997",
        "tle_line2": "2 66944  53.1575   8.0881 0000784 113.2399 319.9921 15.74195134  3343"
      },
      "geometry": {
        "type": "Point",
        "coordinates": [
          -18.635160113796317,
          -29.91766958437498
        ]
      }
    },
    {
      "type": "Feature",
      "properties": {
        "norad_id": 66945,
        "name": "STARLINK-36110",
        "group": "last-30-days",
        "lat": -28.52966527484149,
        "lon": -17.134234035724333,
        "alt_km": 351.3549312491532,
        "timestamp": "2025-12-21T09:37:21.374195+00:00",
        "meta_object_name": "STARLINK-36110",
        "meta_object_id": "2025-286W",
        "meta_epoch": "2025-12-21T04:00:01.998720",
        "meta_mean_motion": 15.74199556,
        "meta_eccentricity": 0.0001199,
        "meta_inclination": 53.1573,
        "meta_ra_of_asc_node": 8.0837,
        "meta_arg_of_pericenter": 103.6041,
        "meta_mean_anomaly": 331.5433,
        "meta_ephemeris_type": 0,
        "meta_classification_type": "U",
        "meta_norad_cat_id": 66945,
        "meta_element_set_no": 999,
        "meta_rev_at_epoch": 334,
        "meta_bstar": -0.0003705,
        "meta_mean_motion_dot": -0.00054565,
        "meta_mean_motion_ddot": 0,
        "tle_line1": "1 66945U 25286W   25355.16668980 -.00054565  00000+0 -37050-3 0  9991",
        "tle_line2": "2 66945  53.1573   8.0837 0001199 103.6041 331.5433 15.74199556  3341"
      },
      "geometry": {
        "type": "Point",
        "coordinates": [
          -17.134234035724333,
          -28.52966527484149
        ]
      }
    },
    {
      "type": "Feature",
      "properties": {
        "norad_id": 66946,
        "name": "STARLINK-36115",
        "group": "last-30-days",
        "lat": -27.124249923682406,
        "lon": -15.670767741129843,
        "alt_km": 351.20590277337396,
        "timestamp": "2025-12-21T09:37:21.374205+00:00",
        "meta_object_name": "STARLINK-36115",
        "meta_object_id": "2025-286X",
        "meta_epoch": "2025-12-21T04:00:01.998720",
        "meta_mean_motion": 15.74188396,
        "meta_eccentricity": 0.0001199,
        "meta_inclination": 53.1572,
        "meta_ra_of_asc_node": 8.0798,
        "meta_arg_of_pericenter": 99.3453,
        "meta_mean_anomaly": 337.7236,
        "meta_ephemeris_type": 0,
        "meta_classification_type": "U",
        "meta_norad_cat_id": 66946,
        "meta_element_set_no": 999,
        "meta_rev_at_epoch": 334,
        "meta_bstar": -0.00024077,
        "meta_mean_motion_dot": -0.00035741,
        "meta_mean_motion_ddot": 0,
        "tle_line1": "1 66946U 25286X   25355.16668980 -.00035741  00000+0 -24077-3 0  9992",
        "tle_line2": "2 66946  53.1572   8.0798 0001199  99.3453 337.7236 15.74188396  3344"
      },
      "geometry": {
        "type": "Point",
        "coordinates": [
          -15.670767741129843,
          -27.124249923682406
        ]
      }
    }
  ]
}